KUIPER-00147            
1 65768U 25217G   26170.68979277 -.00000464  00000+0 -31900-4 0  9992
2 65768  51.9003 309.5457 0000633 109.7510 250.3520 14.79929518 40017
KUIPER-00148            
1 65769U 25217H   26170.78418372  .00002112  00000+0  33443-3 0  9991
2 65769  51.9052 291.0118 0000694 182.7351 177.3606 14.76034575 40281
KUIPER-00150            
1 65770U 25217J   26170.81406909  .00001944  00000+0  28393-3 0  9990
2 65770  51.9024 319.0222 0000522 116.3844 243.7172 14.79932675 39891
KUIPER-00151            
1 65771U 25217K   26170.75462591  .00003309  00000+0  46274-3 0  9998
2 65771  51.9020 311.7836 0000456 123.7469 236.3537 14.79936734 39993
KUIPER-00152            
1 65772U 25217L   26170.73434464  .00000059  00000+0  36771-4 0  9996
2 65772  51.8996 299.3607 0000660 104.3693 255.7342 14.79925820 40167
KUIPER-00153            
1 65773U 25217M   26170.73974503  .00001629  00000+0  24256-3 0  9998
2 65773  51.9032 294.4065 0000613  97.8647 262.2385 14.79935191 40237
KUIPER-00155            
1 65774U 25217N   26170.56681112  .00002474  00000+0  35334-3 0  9999
2 65774  51.9017 267.6349 0000441  92.7753 267.3259 14.79934761 40596
KUIPER-00156            
1 65775U 25217P   26170.57092531  .00001537  00000+0  23062-3 0  9996
2 65775  51.9033 295.1344 0000655 112.7312 247.3719 14.79930427 40209
KUIPER-00163            
1 65777U 25217R   26170.83335647  .00083561  13698-4  27894-3 0  9991
2 65777  51.8862 251.7668 0007335 340.4376   3.3103 15.90249447  5026
KUIPER-00165            
1 65778U 25217S   26170.56013004  .00002897  00000+0  40879-3 0  9991
2 65778  51.9010 305.1315 0000516 108.5733 251.5286 14.79932043 40069
KUIPER-00166            
1 65779U 25217T   26170.60738449  .00001429  00000+0  21636-3 0  9994
2 65779  51.9058 292.4684 0000428 102.6857 257.4153 14.79931897 40247
KUIPER-00167            
1 65780U 25217U   26170.75191939  .00002222  00000+0  32042-3 0  9994
2 65780  51.8967 314.2054 0000462 105.6855 254.4158 14.79930797 39956
KUIPER-00168            
1 65781U 25217V   26170.56821259  .00002801  00000+0  39628-3 0  9999
2 65781  51.9012 297.6009 0000507 100.6055 259.4965 14.79936291 40172
KUIPER-00169            
1 65782U 25217W   26170.56283034  .00002803  00000+0  39659-3 0  9999
2 65782  51.9027 302.6326 0000589 111.4250 248.6776 14.79932684 40100
KUIPER-00170            
1 65783U 25217X   26170.69248721  .00002911  00000+0  41073-3 0  9991
2 65783  51.8990 307.0229 0000516 104.1593 255.9427 14.79931561 40050
KUIPER-00172            
1 65785U 25217Z   26170.74513100  .00002740  00000+0  38830-3 0  9992
2 65785  51.8995 289.3184 0001764  62.6006 297.5136 14.79939607 40308
KUIPER-00173            
1 65786U 25217AA  26169.78622922  .00000424  00000+0  84594-4 0  9994
2 65786  51.9019 306.0642 0000439  99.8379 260.2633 14.79930901 39985
KUIPER-00174            
1 65787U 25217AB  26170.73704000  .00003037  00000+0  42717-3 0  9993
2 65787  51.9030 296.9033 0000571 102.0919 258.0108 14.79938197 40196
KUIPER-00176            
1 65788U 25217AC  26170.45073860  .00002884  00000+0  40714-3 0  9990
2 65788  51.9020 313.1104 0000445 100.1967 259.9046 14.79927035 39940
STARLINK-35330          
1 65791U 25218A   26170.55863487  .00003585  00000+0  25213-3 0  9994
2 65791  97.3402  32.2230 0002307  88.2407 271.9085 15.05668725 40290
STARLINK-35373          
1 65792U 25218B   26170.32603548  .00003683  00000+0  25901-3 0  9993
2 65792  97.3411  32.0787 0001852  85.8273 274.3166 15.05660453 40268
STARLINK-35383          
1 65793U 25218C   26170.57526324  .00004789  00000+0  33553-3 0  9997
2 65793  97.3403  32.3560 0001526  96.6364 263.5038 15.05661291 40305
STARLINK-35378          
1 65794U 25218D   26170.35095585  .00002860  00000+0  20203-3 0  9990
2 65794  97.3460  32.0453 0002190  82.4456 277.7020 15.05658629 40264
STARLINK-35406          
1 65795U 25218E   26170.20973195  .00003096  00000+0  21838-3 0  9994
2 65795  97.3416  31.9287 0002327  81.5130 278.6362 15.05662871 40241
STARLINK-35390          
1 65796U 25218F   26170.58357978 -.00000821  00000+0 -52943-4 0  9998
2 65796  97.3407  32.3441 0001904  76.0459 284.0980 15.05642427 40301
STARLINK-35412          
1 65797U 25218G   26170.56694997  .00003372  00000+0  23748-3 0  9994
2 65797  97.3414  32.3676 0002315  71.5963 288.5516 15.05655081 40301
STARLINK-35414          
1 65798U 25218H   26170.33434302  .00003816  00000+0  26819-3 0  9997
2 65798  97.3413  32.0675 0002719  83.0764 277.0772 15.05662075 40265
STARLINK-35357          
1 65799U 25218J   26170.33988073  .00005229  00000+0  36600-3 0  9996
2 65799  97.3421  32.0599 0002452  87.2543 272.8965 15.05663145 40261
STARLINK-35300          
1 65800U 25218K   26170.48940698  .00003649  00000+0  25663-3 0  9997
2 65800  97.3441  32.1657 0002318  84.5673 275.5819 15.05664080 40286
STARLINK-35296          
1 65801U 25218L   26170.57249101  .00003217  00000+0  22673-3 0  9998
2 65801  97.3408  32.3605 0002143  70.0829 290.0629 15.05661310 40301
