OBJECT_NAME,OBJECT_ID,EPOCH,MEAN_MOTION,ECCENTRICITY,INCLINATION,RA_OF_ASC_NODE,ARG_OF_PERICENTER,MEAN_ANOMALY,EPHEMERIS_TYPE,CLASSIFICATION_TYPE,NORAD_CAT_ID,ELEMENT_SET_NO,REV_AT_EPOCH,BSTAR,MEAN_MOTION_DOT,MEAN_MOTION_DDOT
KUIPER-00147,2025-217G,2026-06-19T16:33:18.095328,14.79929518,.0000633,51.9003,309.5457,109.7510,250.3520,0,U,65768,999,4001,-.319E-4,-.464E-5,0
KUIPER-00148,2025-217H,2026-06-19T18:49:13.473408,14.76034575,.0000694,51.9052,291.0118,182.7351,177.3606,0,U,65769,999,4028,.33443E-3,.2112E-4,0
KUIPER-00150,2025-217J,2026-06-19T19:32:15.569376,14.79932675,.0000522,51.9024,319.0222,116.3844,243.7172,0,U,65770,999,3989,.28393E-3,.1944E-4,0
KUIPER-00151,2025-217K,2026-06-19T18:06:39.678624,14.79936734,.0000456,51.9020,311.7836,123.7469,236.3537,0,U,65771,999,3999,.46274E-3,.3309E-4,0
KUIPER-00152,2025-217L,2026-06-19T17:37:27.376896,14.79925820,.000066,51.8996,299.3607,104.3693,255.7342,0,U,65772,999,4016,.36771E-4,.59E-6,0
KUIPER-00153,2025-217M,2026-06-19T17:45:13.970592,14.79935191,.0000613,51.9032,294.4065,97.8647,262.2385,0,U,65773,999,4023,.24256E-3,.1629E-4,0
KUIPER-00155,2025-217N,2026-06-19T13:36:12.480768,14.79934761,.00004417,51.9017,267.6349,92.7753,267.3259,0,U,65774,999,4059,.35333778E-3,.2474E-4,0
KUIPER-00156,2025-217P,2026-06-19T13:42:07.946784,14.79930427,.00006554,51.9033,295.1344,112.7312,247.3719,0,U,65775,999,4020,.23061694E-3,.1537E-4,0
KUIPER-00163,2025-217R,2026-06-19T20:00:01.999008,15.90249447,.0007335,51.8862,251.7668,340.4376,3.3103,0,U,65777,999,502,.27894E-3,.83561E-3,.13698E-4
KUIPER-00165,2025-217S,2026-06-19T13:26:35.235456,14.79932043,.00005162,51.9010,305.1315,108.5733,251.5286,0,U,65778,999,4006,.40879013E-3,.2897E-4,0
KUIPER-00166,2025-217T,2026-06-19T14:34:38.019936,14.79931897,.00004285,51.9058,292.4684,102.6857,257.4153,0,U,65779,999,4024,.21636073E-3,.1429E-4,0
KUIPER-00167,2025-217U,2026-06-19T18:02:45.835296,14.79930797,.0000462,51.8967,314.2054,105.6855,254.4158,0,U,65780,999,3995,.32042E-3,.2222E-4,0
KUIPER-00168,2025-217V,2026-06-19T13:38:13.567776,14.79936291,.00005071,51.9012,297.6009,100.6055,259.4965,0,U,65781,999,4017,.39628412E-3,.2801E-4,0
KUIPER-00169,2025-217W,2026-06-19T13:30:28.541376,14.79932684,.00005898,51.9027,302.6326,111.4250,248.6776,0,U,65782,999,4010,.39658789E-3,.2803E-4,0
KUIPER-00170,2025-217X,2026-06-19T16:37:10.894944,14.79931561,.0000516,51.8990,307.0229,104.1593,255.9427,0,U,65783,999,4005,.41073E-3,.2911E-4,0
KUIPER-00172,2025-217Z,2026-06-19T17:52:59.318400,14.79939607,.0001764,51.8995,289.3184,62.6006,297.5136,0,U,65785,999,4030,.3883E-3,.274E-4,0
KUIPER-00173,2025-217AA,2026-06-18T18:52:10.204608,14.79930901,.00004397,51.9019,306.0642,99.8379,260.2633,0,U,65786,999,3998,.8459363E-4,.424E-5,0
KUIPER-00174,2025-217AB,2026-06-19T17:41:20.256000,14.79938197,.0000571,51.9030,296.9033,102.0919,258.0108,0,U,65787,999,4019,.42717E-3,.3037E-4,0
KUIPER-00176,2025-217AC,2026-06-19T10:49:03.815040,14.79927035,.00004458,51.9020,313.1104,100.1967,259.9046,0,U,65788,999,3994,.4071392E-3,.2884E-4,0
STARLINK-35330,2025-218A,2026-06-19T13:24:26.052768,15.05668725,.00023078,97.3402,32.2230,88.2407,271.9085,0,U,65791,999,4029,.25213469E-3,.3585E-4,0
STARLINK-35373,2025-218B,2026-06-19T07:49:29.465472,15.05660453,.00018523,97.3411,32.0787,85.8273,274.3166,0,U,65792,999,4026,.25900675E-3,.3683E-4,0
STARLINK-35383,2025-218C,2026-06-19T13:48:22.743936,15.05661291,.00015265,97.3403,32.3560,96.6364,263.5038,0,U,65793,999,4030,.33552514E-3,.4789E-4,0
STARLINK-35378,2025-218D,2026-06-19T08:25:22.585440,15.05658629,.00021904,97.3460,32.0453,82.4456,277.7020,0,U,65794,999,4026,.20202652E-3,.286E-4,0
STARLINK-35406,2025-218E,2026-06-19T05:02:00.840480,15.05662871,.00023272,97.3416,31.9287,81.5130,278.6362,0,U,65795,999,4024,.21838047E-3,.3096E-4,0
STARLINK-35390,2025-218F,2026-06-19T14:00:21.292992,15.05642427,.00019048,97.3407,32.3441,76.0459,284.0980,0,U,65796,999,4030,-.52943103E-4,-.821E-5,0
STARLINK-35412,2025-218G,2026-06-19T13:36:24.477408,15.05655081,.00023156,97.3414,32.3676,71.5963,288.5516,0,U,65797,999,4030,.23748385E-3,.3372E-4,0
STARLINK-35414,2025-218H,2026-06-19T08:01:27.236928,15.05662075,.00027196,97.3413,32.0675,83.0764,277.0772,0,U,65798,999,4026,.26819086E-3,.3816E-4,0
STARLINK-35357,2025-218J,2026-06-19T08:09:25.695072,15.05663145,.00024521,97.3421,32.0599,87.2543,272.8965,0,U,65799,999,4026,.36599616E-3,.5229E-4,0
STARLINK-35300,2025-218K,2026-06-19T11:44:44.763072,15.05664080,.00023188,97.3441,32.1657,84.5673,275.5819,0,U,65800,999,4028,.25662893E-3,.3649E-4,0
STARLINK-35296,2025-218L,2026-06-19T13:44:23.223264,15.05661310,.00021434,97.3408,32.3605,70.0829,290.0629,0,U,65801,999,4030,.22672622E-3,.3217E-4,0
